[{"OBJECT_NAME":"STARLINK-37114","OBJECT_ID":"2026-070V","EPOCH":"2026-04-25T12:38:31.947360","MEAN_MOTION":15.8093827,"ECCENTRICITY":9.817e-5,"INCLINATION":53.1573,"RA_OF_ASC_NODE":149.4884,"ARG_OF_PERICENTER":80.9144,"MEAN_ANOMALY":279.199,"EPHEMERIS_TYPE":0,"CLASSIFICATION_TYPE":"U","NORAD_CAT_ID":68561,"ELEMENT_SET_NO":999,"REV_AT_EPOCH":366,"BSTAR":0.0010214412,"MEAN_MOTION_DOT":0.00206412,"MEAN_MOTION_DDOT":0},{"OBJECT_NAME":"STARLINK-37233","OBJECT_ID":"2026-070W","EPOCH":"2026-04-25T09:34:18.103296","MEAN_MOTION":15.80945217,"ECCENTRICITY":0.00012531,"INCLINATION":53.1573,"RA_OF_ASC_NODE":150.1123,"ARG_OF_PERICENTER":71.2033,"MEAN_ANOMALY":288.9125,"EPHEMERIS_TYPE":0,"CLASSIFICATION_TYPE":"U","NORAD_CAT_ID":68562,"ELEMENT_SET_NO":999,"REV_AT_EPOCH":364,"BSTAR":0.0010317404,"MEAN_MOTION_DOT":0.00208621,"MEAN_MOTION_DDOT":0},{"OBJECT_NAME":"STARLINK-36238","OBJECT_ID":"2026-070X","EPOCH":"2026-04-25T14:08:29.033952","MEAN_MOTION":15.81018181,"ECCENTRICITY":0.00010559,"INCLINATION":53.1578,"RA_OF_ASC_NODE":149.1704,"ARG_OF_PERICENTER":121.1174,"MEAN_ANOMALY":238.9953,"EPHEMERIS_TYPE":0,"CLASSIFICATION_TYPE":"U","NORAD_CAT_ID":68563,"ELEMENT_SET_NO":999,"REV_AT_EPOCH":367,"BSTAR":0.0020092257,"MEAN_MOTION_DOT":0.00418488,"MEAN_MOTION_DDOT":0},{"OBJECT_NAME":"STARLINK-37008","OBJECT_ID":"2026-070Y","EPOCH":"2026-04-25T14:06:19.814112","MEAN_MOTION":15.80970711,"ECCENTRICITY":0.00023002,"INCLINATION":53.1571,"RA_OF_ASC_NODE":149.163,"ARG_OF_PERICENTER":24.7533,"MEAN_ANOMALY":335.36,"EPHEMERIS_TYPE":0,"CLASSIFICATION_TYPE":"U","NORAD_CAT_ID":68564,"ELEMENT_SET_NO":999,"REV_AT_EPOCH":367,"BSTAR":0.0010096753,"MEAN_MOTION_DOT":0.00204291,"MEAN_MOTION_DDOT":0},{"OBJECT_NAME":"STARLINK-37161","OBJECT_ID":"2026-070Z","EPOCH":"2026-04-25T21:40:25.963392","MEAN_MOTION":15.80949384,"ECCENTRICITY":0.00015418,"INCLINATION":53.1574,"RA_OF_ASC_NODE":147.5735,"ARG_OF_PERICENTER":69.9505,"MEAN_ANOMALY":290.1684,"EPHEMERIS_TYPE":0,"CLASSIFICATION_TYPE":"U","NORAD_CAT_ID":68565,"ELEMENT_SET_NO":999,"REV_AT_EPOCH":372,"BSTAR":0.0013726192,"MEAN_MOTION_DOT":0.00280169,"MEAN_MOTION_DDOT":0},{"OBJECT_NAME":"STARLINK-37212","OBJECT_ID":"2026-070AA","EPOCH":"2026-04-25T14:04:09.729408","MEAN_MOTION":15.81027099,"ECCENTRICITY":7.854e-5,"INCLINATION":53.1577,"RA_OF_ASC_NODE":149.1463,"ARG_OF_PERICENTER":85.0498,"MEAN_ANOMALY":275.0615,"EPHEMERIS_TYPE":0,"CLASSIFICATION_TYPE":"U","NORAD_CAT_ID":68566,"ELEMENT_SET_NO":999,"REV_AT_EPOCH":367,"BSTAR":0.0017066407,"MEAN_MOTION_DOT":0.00352773,"MEAN_MOTION_DDOT":0},{"OBJECT_NAME":"STARLINK-37261","OBJECT_ID":"2026-070AB","EPOCH":"2026-04-25T21:38:15.989280","MEAN_MOTION":15.81086908,"ECCENTRICITY":0.00020198,"INCLINATION":53.1571,"RA_OF_ASC_NODE":147.561,"ARG_OF_PERICENTER":120.9296,"MEAN_ANOMALY":239.1925,"EPHEMERIS_TYPE":0,"CLASSIFICATION_TYPE":"U","NORAD_CAT_ID":68567,"ELEMENT_SET_NO":999,"REV_AT_EPOCH":372,"BSTAR":0.0022619288,"MEAN_MOTION_DOT":0.00475879,"MEAN_MOTION_DDOT":0},{"OBJECT_NAME":"STARLINK-37283","OBJECT_ID":"2026-070AC","EPOCH":"2026-04-25T13:23:17.173824","MEAN_MOTION":15.8137364,"ECCENTRICITY":0.00023124,"INCLINATION":53.1575,"RA_OF_ASC_NODE":149.6999,"ARG_OF_PERICENTER":183.549,"MEAN_ANOMALY":176.5517,"EPHEMERIS_TYPE":0,"CLASSIFICATION_TYPE":"U","NORAD_CAT_ID":68568,"ELEMENT_SET_NO":999,"REV_AT_EPOCH":366,"BSTAR":0.0026689408,"MEAN_MOTION_DOT":0.00575823,"MEAN_MOTION_DDOT":0},{"OBJECT_NAME":"STARLINK-37256","OBJECT_ID":"2026-070AD","EPOCH":"2026-04-25T22:30:35.288352","MEAN_MOTION":15.80953616,"ECCENTRICITY":8.362e-5,"INCLINATION":53.1576,"RA_OF_ASC_NODE":147.8031,"ARG_OF_PERICENTER":107.8586,"MEAN_ANOMALY":252.2528,"EPHEMERIS_TYPE":0,"CLASSIFICATION_TYPE":"U","NORAD_CAT_ID":68569,"ELEMENT_SET_NO":999,"REV_AT_EPOCH":372,"BSTAR":0.0012119688,"MEAN_MOTION_DOT":0.0024637,"MEAN_MOTION_DDOT":0},{"OBJECT_NAME":"STARLINK-37228","OBJECT_ID":"2026-070AE","EPOCH":"2026-04-25T13:22:12.486144","MEAN_MOTION":15.80984904,"ECCENTRICITY":0.00010329,"INCLINATION":53.1575,"RA_OF_ASC_NODE":149.6945,"ARG_OF_PERICENTER":71.773,"MEAN_ANOMALY":288.3405,"EPHEMERIS_TYPE":0,"CLASSIFICATION_TYPE":"U","NORAD_CAT_ID":68570,"ELEMENT_SET_NO":999,"REV_AT_EPOCH":366,"BSTAR":0.0013502495,"MEAN_MOTION_DOT":0.00275908,"MEAN_MOTION_DDOT":0},{"OBJECT_NAME":"MERIDIAN-M 21L","OBJECT_ID":"2026-071A","EPOCH":"2026-04-25T09:02:13.467264","MEAN_MOTION":2.00619164,"ECCENTRICITY":0.72090108,"INCLINATION":62.787,"RA_OF_ASC_NODE":235.8371,"ARG_OF_PERICENTER":285.0296,"MEAN_ANOMALY":11.0051,"EPHEMERIS_TYPE":0,"CLASSIFICATION_TYPE":"U","NORAD_CAT_ID":68571,"ELEMENT_SET_NO":999,"REV_AT_EPOCH":45,"BSTAR":0,"MEAN_MOTION_DOT":-6.7e-7,"MEAN_MOTION_DDOT":0},{"OBJECT_NAME":"KUIPER-00131","OBJECT_ID":"2026-072A","EPOCH":"2026-04-26T22:00:00.999936","MEAN_MOTION":15.21523149,"ECCENTRICITY":0.00061636,"INCLINATION":51.8786,"RA_OF_ASC_NODE":65.3585,"ARG_OF_PERICENTER":178.814,"MEAN_ANOMALY":240.8712,"EPHEMERIS_TYPE":0,"CLASSIFICATION_TYPE":"U","NORAD_CAT_ID":68573,"ELEMENT_SET_NO":999,"REV_AT_EPOCH":441,"BSTAR":-0.095607525,"MEAN_MOTION_DOT":-0.01975059,"MEAN_MOTION_DDOT":0},{"OBJECT_NAME":"KUIPER-00189","OBJECT_ID":"2026-072B","EPOCH":"2026-04-26T22:00:00.999936","MEAN_MOTION":15.07835795,"ECCENTRICITY":0.00011759,"INCLINATION":51.897,"RA_OF_ASC_NODE":66.4243,"ARG_OF_PERICENTER":114.0054,"MEAN_ANOMALY":119.0918,"EPHEMERIS_TYPE":0,"CLASSIFICATION_TYPE":"U","NORAD_CAT_ID":68574,"ELEMENT_SET_NO":999,"REV_AT_EPOCH":399,"BSTAR":-0.061572391,"MEAN_MOTION_DOT":-0.00884943,"MEAN_MOTION_DDOT":0},{"OBJECT_NAME":"KUIPER-00192","OBJECT_ID":"2026-072C","EPOCH":"2026-04-24T09:16:09.635232","MEAN_MOTION":15.3721113,"ECCENTRICITY":0.000504,"INCLINATION":51.8749,"RA_OF_ASC_NODE":77.0892,"ARG_OF_PERICENTER":167.7782,"MEAN_ANOMALY":192.3328,"EPHEMERIS_TYPE":0,"CLASSIFICATION_TYPE":"U","NORAD_CAT_ID":68575,"ELEMENT_SET_NO":999,"REV_AT_EPOCH":310,"BSTAR":-0.0069664446,"MEAN_MOTION_DOT":-0.00250072,"MEAN_MOTION_DDOT":0},{"OBJECT_NAME":"KUIPER-00193","OBJECT_ID":"2026-072D","EPOCH":"2026-04-24T12:20:59.673984","MEAN_MOTION":15.37798746,"ECCENTRICITY":0.00036323,"INCLINATION":51.8751,"RA_OF_ASC_NODE":76.4484,"ARG_OF_PERICENTER":148.5584,"MEAN_ANOMALY":211.5621,"EPHEMERIS_TYPE":0,"CLASSIFICATION_TYPE":"U","NORAD_CAT_ID":68576,"ELEMENT_SET_NO":999,"REV_AT_EPOCH":312,"BSTAR":0.00054723588,"MEAN_MOTION_DOT":0.00020308,"MEAN_MOTION_DDOT":0}]
